{"fetched_at":"2026-07-23T07:05:23.680Z","source":"https://celestrak.org/NORAD/elements/gp.php?GROUP=spire&FORMAT=JSON","constellation":"spire","records":[{"OBJECT_NAME":"LEMUR-1","OBJECT_ID":"2014-033AL","EPOCH":"2026-07-21T15:37:48.107136","CLASSIFICATION_TYPE":"U","MEAN_MOTION":14.853497,"ECCENTRICITY":0.00472517,"INCLINATION":97.7917,"RA_OF_ASC_NODE":351.7008,"ARG_OF_PERICENTER":326.4372,"MEAN_ANOMALY":33.3852,"EPHEMERIS_TYPE":0,"NORAD_CAT_ID":40044,"ELEMENT_SET_NO":999,"REV_AT_EPOCH":65058,"BSTAR":0.0001369179,"MEAN_MOTION_DOT":0.00001145,"MEAN_MOTION_DDOT":0},{"OBJECT_NAME":"LEMUR-2-GREENBERG","OBJECT_ID":"2017-042N","EPOCH":"2026-07-22T18:04:28.210656","CLASSIFICATION_TYPE":"U","MEAN_MOTION":15.32329535,"ECCENTRICITY":0.00076261,"INCLINATION":97.384,"RA_OF_ASC_NODE":24.2447,"ARG_OF_PERICENTER":228.2154,"MEAN_ANOMALY":131.8437,"EPHEMERIS_TYPE":0,"NORAD_CAT_ID":42837,"ELEMENT_SET_NO":999,"REV_AT_EPOCH":49383,"BSTAR":0.00058440758,"MEAN_MOTION_DOT":0.00018203,"MEAN_MOTION_DDOT":0},{"OBJECT_NAME":"LEMUR-2-ANDIS","OBJECT_ID":"2017-042P","EPOCH":"2026-07-22T21:25:27.621984","CLASSIFICATION_TYPE":"U","MEAN_MOTION":15.36167769,"ECCENTRICITY":0.00076254,"INCLINATION":97.3692,"RA_OF_ASC_NODE":24.6976,"ARG_OF_PERICENTER":226.7644,"MEAN_ANOMALY":133.2964,"EPHEMERIS_TYPE":0,"NORAD_CAT_ID":42838,"ELEMENT_SET_NO":999,"REV_AT_EPOCH":49393,"BSTAR":0.00072202952,"MEAN_MOTION_DOT":0.0002544,"MEAN_MOTION_DDOT":0},{"OBJECT_NAME":"LEMUR-2-MONSON","OBJECT_ID":"2017-042Q","EPOCH":"2026-07-22T20:09:40.764096","CLASSIFICATION_TYPE":"U","MEAN_MOTION":15.28916242,"ECCENTRICITY":0.0005852,"INCLINATION":97.4103,"RA_OF_ASC_NODE":24.2472,"ARG_OF_PERICENTER":214.1377,"MEAN_ANOMALY":145.9487,"EPHEMERIS_TYPE":0,"NORAD_CAT_ID":42839,"ELEMENT_SET_NO":999,"REV_AT_EPOCH":49361,"BSTAR":0.00068624582,"MEAN_MOTION_DOT":0.00019239,"MEAN_MOTION_DDOT":0},{"OBJECT_NAME":"LEMUR-2-FURIAUS","OBJECT_ID":"2017-042R","EPOCH":"2026-07-22T18:30:19.130400","CLASSIFICATION_TYPE":"U","MEAN_MOTION":15.3131327,"ECCENTRICITY":0.0005635,"INCLINATION":97.3787,"RA_OF_ASC_NODE":22.1377,"ARG_OF_PERICENTER":297.0956,"MEAN_ANOMALY":62.971,"EPHEMERIS_TYPE":0,"NORAD_CAT_ID":42840,"ELEMENT_SET_NO":999,"REV_AT_EPOCH":49365,"BSTAR":0.00064535199,"MEAN_MOTION_DOT":0.00019477,"MEAN_MOTION_DDOT":0},{"OBJECT_NAME":"LEMUR-2-PETERG","OBJECT_ID":"2017-042S","EPOCH":"2026-07-22T07:28:31.725984","CLASSIFICATION_TYPE":"U","MEAN_MOTION":15.35223729,"ECCENTRICITY":0.0003874,"INCLINATION":97.4004,"RA_OF_ASC_NODE":28.4368,"ARG_OF_PERICENTER":191.0244,"MEAN_ANOMALY":169.0915,"EPHEMERIS_TYPE":0,"NORAD_CAT_ID":42841,"ELEMENT_SET_NO":999,"REV_AT_EPOCH":49382,"BSTAR":0.00066383213,"MEAN_MOTION_DOT":0.00022664,"MEAN_MOTION_DDOT":0},{"OBJECT_NAME":"LEMUR-2-DEMBITZ","OBJECT_ID":"2017-042T","EPOCH":"2026-07-22T00:09:43.918848","CLASSIFICATION_TYPE":"U","MEAN_MOTION":15.31253266,"ECCENTRICITY":0.00052746,"INCLINATION":97.3839,"RA_OF_ASC_NODE":24.4256,"ARG_OF_PERICENTER":243.5314,"MEAN_ANOMALY":116.5387,"EPHEMERIS_TYPE":0,"NORAD_CAT_ID":42842,"ELEMENT_SET_NO":999,"REV_AT_EPOCH":49367,"BSTAR":0.00058479899,"MEAN_MOTION_DOT":0.00017604,"MEAN_MOTION_DDOT":0},{"OBJECT_NAME":"LEMUR-2-ZACHARY","OBJECT_ID":"2017-042W","EPOCH":"2026-07-22T20:22:26.459904","CLASSIFICATION_TYPE":"U","MEAN_MOTION":15.53295291,"ECCENTRICITY":0.0003079,"INCLINATION":97.3582,"RA_OF_ASC_NODE":36.3221,"ARG_OF_PERICENTER":214.3882,"MEAN_ANOMALY":145.7173,"EPHEMERIS_TYPE":0,"NORAD_CAT_ID":42845,"ELEMENT_SET_NO":999,"REV_AT_EPOCH":49473,"BSTAR":0.00098230264,"MEAN_MOTION_DOT":0.00062205,"MEAN_MOTION_DDOT":0},{"OBJECT_NAME":"LEMUR-2-AMANDA-SVANTE","OBJECT_ID":"2021-034B","EPOCH":"2026-07-22T16:21:19.092672","CLASSIFICATION_TYPE":"U","MEAN_MOTION":15.36308179,"ECCENTRICITY":0.00047708,"INCLINATION":97.5743,"RA_OF_ASC_NODE":282.9541,"ARG_OF_PERICENTER":126.4955,"MEAN_ANOMALY":233.6728,"EPHEMERIS_TYPE":0,"NORAD_CAT_ID":48269,"ELEMENT_SET_NO":999,"REV_AT_EPOCH":28650,"BSTAR":0.00096997958,"MEAN_MOTION_DOT":0.00034377,"MEAN_MOTION_DDOT":0},{"OBJECT_NAME":"LEMUR-2-SPECIAL-K","OBJECT_ID":"2021-034F","EPOCH":"2026-07-22T12:11:14.170560","CLASSIFICATION_TYPE":"U","MEAN_MOTION":15.77833093,"ECCENTRICITY":0.0006148,"INCLINATION":97.5623,"RA_OF_ASC_NODE":293.2632,"ARG_OF_PERICENTER":211.9192,"MEAN_ANOMALY":148.1703,"EPHEMERIS_TYPE":0,"NORAD_CAT_ID":48273,"ELEMENT_SET_NO":999,"REV_AT_EPOCH":28723,"BSTAR":0.0017880834,"MEAN_MOTION_DOT":0.00310609,"MEAN_MOTION_DDOT":0},{"OBJECT_NAME":"LEMUR-2-EMBRIONOVIS","OBJECT_ID":"2023-084AQ","EPOCH":"2026-07-22T09:36:39.168576","CLASSIFICATION_TYPE":"U","MEAN_MOTION":15.38367572,"ECCENTRICITY":0.00088903,"INCLINATION":97.6329,"RA_OF_ASC_NODE":348.9822,"ARG_OF_PERICENTER":180.3852,"MEAN_ANOMALY":179.7387,"EPHEMERIS_TYPE":0,"NORAD_CAT_ID":56970,"ELEMENT_SET_NO":999,"REV_AT_EPOCH":17309,"BSTAR":0.00039879839,"MEAN_MOTION_DOT":0.0001503,"MEAN_MOTION_DDOT":0},{"OBJECT_NAME":"LEMUR-2-DEVERILL-M-T","OBJECT_ID":"2023-100F","EPOCH":"2026-07-22T13:36:50.590944","CLASSIFICATION_TYPE":"U","MEAN_MOTION":15.41359875,"ECCENTRICITY":0.00048612,"INCLINATION":99.4449,"RA_OF_ASC_NODE":252.5916,"ARG_OF_PERICENTER":266.5325,"MEAN_ANOMALY":93.5359,"EPHEMERIS_TYPE":0,"NORAD_CAT_ID":57391,"ELEMENT_SET_NO":999,"REV_AT_EPOCH":16669,"BSTAR":0.00068141641,"MEAN_MOTION_DOT":0.00028403,"MEAN_MOTION_DDOT":0},{"OBJECT_NAME":"LEMUR-2-BASS","OBJECT_ID":"2023-174D","EPOCH":"2026-07-22T05:09:21.459744","CLASSIFICATION_TYPE":"U","MEAN_MOTION":15.44161059,"ECCENTRICITY":0.0007139,"INCLINATION":97.3836,"RA_OF_ASC_NODE":288.4427,"ARG_OF_PERICENTER":57.0694,"MEAN_ANOMALY":303.124,"EPHEMERIS_TYPE":0,"NORAD_CAT_ID":58259,"ELEMENT_SET_NO":999,"REV_AT_EPOCH":15076,"BSTAR":0.00040287576,"MEAN_MOTION_DOT":0.00018409,"MEAN_MOTION_DDOT":0},{"OBJECT_NAME":"LEMUR-2-JK0903EM1407","OBJECT_ID":"2023-174CJ","EPOCH":"2026-07-22T17:18:28.022688","CLASSIFICATION_TYPE":"U","MEAN_MOTION":15.53365971,"ECCENTRICITY":0.00028798,"INCLINATION":97.3917,"RA_OF_ASC_NODE":295.2372,"ARG_OF_PERICENTER":0.1689,"MEAN_ANOMALY":359.9564,"EPHEMERIS_TYPE":0,"NORAD_CAT_ID":58336,"ELEMENT_SET_NO":999,"REV_AT_EPOCH":15124,"BSTAR":0.00046017029,"MEAN_MOTION_DOT":0.00029041,"MEAN_MOTION_DDOT":0},{"OBJECT_NAME":"LEMUR-2-MJR092620","OBJECT_ID":"2023-174CN","EPOCH":"2026-07-22T21:33:47.096928","CLASSIFICATION_TYPE":"U","MEAN_MOTION":15.46076593,"ECCENTRICITY":0.00045171,"INCLINATION":97.3967,"RA_OF_ASC_NODE":294.616,"ARG_OF_PERICENTER":0.8116,"MEAN_ANOMALY":359.3139,"EPHEMERIS_TYPE":0,"NORAD_CAT_ID":58340,"ELEMENT_SET_NO":999,"REV_AT_EPOCH":15116,"BSTAR":0.00044344823,"MEAN_MOTION_DOT":0.00021635,"MEAN_MOTION_DDOT":0},{"OBJECT_NAME":"LEMUR-2-NIMBUS2000","OBJECT_ID":"2024-022A","EPOCH":"2026-07-22T20:45:21.208320","CLASSIFICATION_TYPE":"U","MEAN_MOTION":15.41359662,"ECCENTRICITY":0.00078935,"INCLINATION":97.4081,"RA_OF_ASC_NODE":54.344,"ARG_OF_PERICENTER":1.5254,"MEAN_ANOMALY":358.6016,"EPHEMERIS_TYPE":0,"NORAD_CAT_ID":58899,"ELEMENT_SET_NO":999,"REV_AT_EPOCH":13776,"BSTAR":0.0006210343,"MEAN_MOTION_DOT":0.00025909,"MEAN_MOTION_DDOT":0}]}
